Ephemeris / WWW_USER Mon Mar  4 15:43:32 2024 Pasadena, USA      / Horizons
*******************************************************************************
Target body name: IM-1 (spacecraft) (-229)        {source: IM-1_merged}
Center body name: Earth (399)                     {source: DE441}
Center-site name: BODY CENTER
*******************************************************************************
Start time      : A.D. 2024-Feb-15 06:07:00.0000 TDB
Stop  time      : A.D. 2024-Feb-22 22:46:00.0000 TDB
Step-size       : 10 minutes
*******************************************************************************
Center geodetic : 0.0, 0.0, 0.0                   {E-lon(deg),Lat(deg),Alt(km)}
Center cylindric: 0.0, 0.0, 0.0                   {E-lon(deg),Dxy(km),Dz(km)}
Center radii    : 6378.137, 6378.137, 6356.752 km {Equator_a, b, pole_c}
Output units    : KM-S
Calendar mode   : Mixed Julian/Gregorian
Output type     : GEOMETRIC cartesian states
Output format   : 3 (position, velocity, LT, range, range-rate)
EOP file        : eop.240304.p240528
EOP coverage    : DATA-BASED 1962-JAN-20 TO 2024-MAR-04. PREDICTS-> 2024-MAY-27
Reference frame : Ecliptic of J2000.0
*******************************************************************************
            JDTDB,            Calendar Date (TDB),                      X,                      Y,                      Z,                     VX,                     VY,                     VZ,                     LT,                     RG,                     RR,
**************************************************************************************************************************************************************************************************************************************************************************
$$SOE
2460359.504861111, A.D. 2024-Feb-19 00:07:00.0000, -1.742927870531961E+05,  3.399295771486596E+05,  1.925426765889654E+04, -2.950738018890613E-01,  2.373650000945212E-01,  1.124814104642185E-01,  1.275858986802609E+00,  3.824929017149438E+05,  3.510715258016804E-01,
2460359.511805556, A.D. 2024-Feb-19 00:17:00.0000, -1.744695907569110E+05,  3.400715618929426E+05,  1.932173282822364E+04, -2.942718981895885E-01,  2.359177951340272E-01,  1.124024644752154E-01,  1.276560010424815E+00,  3.827030633097608E+05,  3.494673911129306E-01,
2460359.518750000, A.D. 2024-Feb-19 00:27:00.0000, -1.746459133556581E+05,  3.402126788790251E+05,  1.938915058892217E+04, -2.934701176069109E-01,  2.344724711538571E-01,  1.123233817585551E-01,  1.277257825159249E+00,  3.829122629042254E+05,  3.478648560899713E-01,
2460359.525694444, A.D. 2024-Feb-19 00:37:00.0000, -1.748217549214009E+05,  3.403529292326119E+05,  1.945652085905672E+04, -2.926684537848688E-01,  2.330290185550923E-01,  1.122441626510950E-01,  1.277952434196236E+00,  3.831205014547728E+05,  3.462639095282635E-01,
2460359.532638889, A.D. 2024-Feb-19 00:47:00.0000, -1.749971155222854E+05,  3.404923140736676E+05,  1.952384355689296E+04, -2.918669003551723E-01,  2.315874278009767E-01,  1.121648074856089E-01,  1.278643840703723E+00,  3.833277799111294E+05,  3.446645402675408E-01,
2460359.539583333, A.D. 2024-Feb-19 00:57:00.0000, -1.751719952226332E+05,  3.406308345164531E+05,  1.959111860089483E+04, -2.910654509369343E-01,  2.301476894165627E-01,  1.120853165908231E-01,  1.279332047827360E+00,  3.835340992163380E+05,  3.430667371912783E-01,
2460359.546527778, A.D. 2024-Feb-19 01:07:00.0000, -1.753463940829332E+05,  3.407684916695628E+05,  1.965834590972248E+04, -2.902640991361988E-01,  2.287097939883642E-01,  1.120056902914526E-01,  1.280017058690599E+00,  3.837394603067848E+05,  3.414704892261626E-01,
2460359.553472222, A.D. 2024-Feb-19 01:17:00.0000, -1.755203121598343E+05,  3.409052866359618E+05,  1.972552540222948E+04, -2.894628385454656E-01,  2.272737321640162E-01,  1.119259289082357E-01,  1.280698876394767E+00,  3.839438641122253E+05,  3.398757853415662E-01,
2460359.560416667, A.D. 2024-Feb-19 01:27:00.0000, -1.756937495061370E+05,  3.410412205130216E+05,  1.979265699746089E+04, -2.886616627432122E-01,  2.258394946519387E-01,  1.118460327579695E-01,  1.281377504019161E+00,  3.841473115558090E+05,  3.382826145490235E-01,
2460359.567361111, A.D. 2024-Feb-19 01:37:00.0000, -1.758667061707845E+05,  3.411762943925577E+05,  1.985974061465031E+04, -2.878605652934083E-01,  2.244070722210083E-01,  1.117660021535434E-01,  1.282052944621127E+00,  3.843498035541055E+05,  3.366909659017100E-01,
2460359.574305556, A.D. 2024-Feb-19 01:47:00.0000, -1.760391821988547E+05,  3.413105093608645E+05,  1.992677617321828E+04, -2.870595397450286E-01,  2.229764557002333E-01,  1.116858374039735E-01,  1.282725201236145E+00,  3.845513410171285E+05,  3.351008284939227E-01,
2460359.581250000, A.D. 2024-Feb-19 01:57:00.0000, -1.762111776315506E+05,  3.414438664987524E+05,  1.999376359276926E+04, -2.862585796315603E-01,  2.215476359784369E-01,  1.116055388144365E-01,  1.283394276877911E+00,  3.847519248483615E+05,  3.335121914605641E-01,
2460359.588194444, A.D. 2024-Feb-19 02:07:00.0000, -1.763826925061911E+05,  3.415763668815837E+05,  2.006070279308964E+04, -2.854576784705052E-01,  2.201206040039440E-01,  1.115251066863017E-01,  1.284060174538420E+00,  3.849515559447818E+05,  3.319250439766273E-01,
2460359.595138889, A.D. 2024-Feb-19 02:17:00.0000, -1.765537268562016E+05,  3.417080115793071E+05,  2.012759369414554E+04, -2.846568297628789E-01,  2.186953507842755E-01,  1.114445413171651E-01,  1.284722897188039E+00,  3.851502351968836E+05,  3.303393752566849E-01,
2460359.602083333, A.D. 2024-Feb-19 02:27:00.0000, -1.767242807111040E+05,  3.418388016564948E+05,  2.019443621608052E+04, -2.838560269927036E-01,  2.172718673858467E-01,  1.113638430008810E-01,  1.285382447775598E+00,  3.853479634887031E+05,  3.287551745543785E-01,
2460359.609027778, A.D. 2024-Feb-19 02:37:00.0000, -1.769003844440190E+05,  3.419748786200763E+05,  2.025948849810836E+04, -3.006050893282576E-01,  2.337203965762636E-01,  1.062139954549562E-01,  1.286065920405614E+00,  3.855528634284314E+05,  3.508092253153919E-01,
2460359.615972222, A.D. 2024-Feb-19 02:47:00.0000, -1.770805072886964E+05,  3.421146848082663E+05,  2.032319261916708E+04, -2.998044050323800E-01,  2.323005395732021E-01,  1.061330564859221E-01,  1.286766443833493E+00,  3.857628750687619E+05,  3.492298333104411E-01,
2460359.622916667, A.D. 2024-Feb-19 02:57:00.0000, -1.772601497439467E+05,  3.422536396372758E+05,  2.038684814402023E+04, -2.990037901336786E-01,  2.308825310968145E-01,  1.060520081445737E-01,  1.287463807833202E+00,  3.859719395363554E+05,  3.476519810125408E-01,
2460359.629861111, A.D. 2024-Feb-19 03:07:00.0000, -1.774393118494363E+05,  3.423917442134591E+05,  2.045045500712466E+04, -2.982032380731686E-01,  2.294663619633243E-01,  1.059708507029037E-01,  1.288158015475282E+00,  3.861800577517367E+05,  3.460756574494080E-01,
2460359.636805556, A.D. 2024-Feb-19 03:17:00.0000, -1.776179936409008E+05,  3.425289996376858E+05,  2.051401314310242E+04, -2.974027422740291E-01,  2.280520230489186E-01,  1.058895844298743E-01,  1.288849069808390E+00,  3.863872306288708E+05,  3.445008516880257E-01,
2460359.643750000, A.D. 2024-Feb-19 03:27:00.0000, -1.777961951500898E+05,  3.426654070053419E+05,  2.057752248672421E+04, -2.966022961412720E-01,  2.266395052897790E-01,  1.058082095914685E-01,  1.289536973859208E+00,  3.865934590751337E+05,  3.429275528344953E-01,
2460359.650694444, A.D. 2024-Feb-19 03:37:00.0000, -1.779739164048492E+05,  3.428009674064388E+05,  2.064098297294040E+04, -2.958018930607799E-01,  2.252287996810198E-01,  1.057267264506802E-01,  1.290221730632882E+00,  3.867987439914455E+05,  3.413557500326664E-01,
2460359.657638889, A.D. 2024-Feb-19 03:47:00.0000, -1.781511574290435E+05,  3.429356819255971E+05,  2.070439453685546E+04, -2.950015263990611E-01,  2.238198972769080E-01,  1.056451352675748E-01,  1.290903343112840E+00,  3.870030862722156E+05,  3.397854324641878E-01,
2460359.664583333, A.D. 2024-Feb-19 03:57:00.0000, -1.783279182424966E+05,  3.430695516420458E+05,  2.076775711370987E+04, -2.942011895029102E-01,  2.224127891909333E-01,  1.055634362993425E-01,  1.291581814260685E+00,  3.872064868053103E+05,  3.382165893483886E-01,
2460359.671527778, A.D. 2024-Feb-19 04:07:00.0000, -1.785041988610759E+05,  3.432025776297317E+05,  2.083107063891224E+04, -2.934008756984163E-01,  2.210074665947446E-01,  1.054816298002841E-01,  1.292257147016644E+00,  3.874089464721870E+05,  3.366492099408902E-01,
2460359.678472222, A.D. 2024-Feb-19 04:17:00.0000, -1.786799992966232E+05,  3.433347609573100E+05,  2.089433504801759E+04, -2.926005782906576E-01,  2.196039207183130E-01,  1.053997160218680E-01,  1.292929344299414E+00,  3.876104661478496E+05,  3.350832835335803E-01,
2460359.685416667, A.D. 2024-Feb-19 04:27:00.0000, -1.788553195569534E+05,  3.434661026881892E+05,  2.095755027672969E+04, -2.918002905630757E-01,  2.182021428495508E-01,  1.053176952127545E-01,  1.293598409006287E+00,  3.878110467008841E+05,  3.335187994539745E-01,
2460359.692361111, A.D. 2024-Feb-19 04:37:00.0000, -1.790301596458654E+05,  3.435966038805831E+05,  2.102071626090804E+04, -2.910000057767897E-01,  2.168021243338399E-01,  1.052355676188137E-01,  1.294264344013307E+00,  3.880106889935070E+05,  3.319557470644727E-01,
2460359.699305556, A.D. 2024-Feb-19 04:47:00.0000, -1.792045195631101E+05,  3.437262655875320E+05,  2.108383293655969E+04, -2.901997171700956E-01,  2.154038565739043E-01,  1.051533334831638E-01,  1.294927152175274E+00,  3.882093938815655E+05,  3.303941157619935E-01,
2460359.706250000, A.D. 2024-Feb-19 04:57:00.0000, -1.793783993043573E+05,  3.438550888569211E+05,  2.114690023983072E+04, -2.893994179579643E-01,  2.140073310296995E-01,  1.050709930462086E-01,  1.295586836325731E+00,  3.884071622145348E+05,  3.288338949776214E-01,
